FLOCK 4Q-16             
1 58271U 23174R   26197.54449955  .00014718  00000+0  26021-3 0  9994
2 58271  97.3825 286.3581 0006794  73.2930 286.9066 15.50409371150123
FLOCK 4Q-11             
1 58273U 23174T   26197.71064810  .00013845  00000+0  24058-3 0  9996
2 58273  97.3862 287.1665 0006229  66.9678 293.2230 15.50918127150161
FLOCK 4Q-28             
1 58280U 23174AA  26197.69347767  .00019014  00000+0  26633-3 0  9991
2 58280  97.3886 289.8979 0004691  59.1719 300.9997 15.56823218150330
FLOCK 4Q-27             
1 58282U 23174AC  26197.82361970  .00019723  00000+0  27416-3 0  9997
2 58282  97.3813 289.4386 0003862  64.5134 295.6520 15.57025676150368
FLOCK 4Q-7              
1 58318U 23174BQ  26197.19886253  .00020600  00000+0  28213-3 0  9995
2 58318  97.3915 289.7135 0004473  38.7691 321.3885 15.57413924150263
FLOCK 4Q-2              
1 58320U 23174BS  26197.82455667  .00014205  00000+0  24713-3 0  9994
2 58320  97.3843 286.9951 0004630  46.5011 313.6625 15.50887380150191
FLOCK 4Q-9              
1 58322U 23174BU  26197.64721023  .00017575  00000+0  29967-3 0  9997
2 58322  97.3857 286.9259 0005437  45.9732 314.1968 15.51403062150152
FLOCK 4Q-4              
1 58327U 23174BZ  26197.21093249  .00013609  00000+0  24527-3 0  9998
2 58327  97.3832 285.5904 0005693  71.7862 288.4009 15.49889476150059
FLOCK 4Q-13             
1 58328U 23174CA  26197.19398430  .00013456  00000+0  21789-3 0  9993
2 58328  97.4008 288.8848 0005838  52.8672 307.3114 15.52911479150173
FLOCK 4BE-18            
1 60480U 24149N   26197.79549458  .00009536  00000+0  22014-3 0  9998
2 60480  97.3728 281.8533 0005121 139.2375 220.9256 15.42743671106873
FLOCK 4BE-7             
1 60481U 24149P   26197.18082088  .00013467  00000+0  32321-3 0  9993
2 60481  97.3756 280.5199 0004354 146.0545 214.0981 15.41483947106719
FLOCK 4BE-36            
1 60486U 24149U   26197.68629241  .00010539  00000+0  23642-3 0  9994
2 60486  97.3742 282.4853 0004874 148.5516 211.6024 15.43572995106905
FLOCK 4BE-25            
1 60487U 24149V   26197.79754231  .00008517  00000+0  21859-3 0  9996
2 60487  97.3796 281.1633 0003736 138.9384 221.2143 15.39572550106797
FLOCK 4BE-31            
1 60488U 24149W   26197.81805836  .00012715  00000+0  26961-3 0  9992
2 60488  97.3795 283.5670 0003850 147.4750 212.6736 15.45200361106958
FLOCK 4BE-20            
1 60489U 24149X   26197.19019288  .00008686  00000+0  22827-3 0  9991
2 60489  97.3691 279.3574 0005113 151.0739 209.0790 15.38831395106670
FLOCK 4BE-23            
1 60490U 24149Y   26197.18836747  .00007649  00000+0  20427-3 0  9991
2 60490  97.3777 279.7464 0004749 153.5549 206.5939 15.38379949106656
