{"fetched_at":"2026-07-17T06:37:53.254Z","source":"https://celestrak.org/NORAD/elements/gp.php?GROUP=planet&FORMAT=JSON","constellation":"superdove","records":[{"OBJECT_NAME":"FLOCK 4Q-16","OBJECT_ID":"2023-174R","EPOCH":"2026-07-16T13:04:04.761120","CLASSIFICATION_TYPE":"U","MEAN_MOTION":15.50409371,"ECCENTRICITY":0.0006794,"INCLINATION":97.3825,"RA_OF_ASC_NODE":286.3581,"ARG_OF_PERICENTER":73.293,"MEAN_ANOMALY":286.9066,"EPHEMERIS_TYPE":0,"NORAD_CAT_ID":58271,"ELEMENT_SET_NO":999,"REV_AT_EPOCH":15012,"BSTAR":0.00026021,"MEAN_MOTION_DOT":0.00014718,"MEAN_MOTION_DDOT":0},{"OBJECT_NAME":"FLOCK 4Q-11","OBJECT_ID":"2023-174T","EPOCH":"2026-07-16T17:03:19.995840","CLASSIFICATION_TYPE":"U","MEAN_MOTION":15.50918127,"ECCENTRICITY":0.0006229,"INCLINATION":97.3862,"RA_OF_ASC_NODE":287.1665,"ARG_OF_PERICENTER":66.9678,"MEAN_ANOMALY":293.223,"EPHEMERIS_TYPE":0,"NORAD_CAT_ID":58273,"ELEMENT_SET_NO":999,"REV_AT_EPOCH":15016,"BSTAR":0.00024058,"MEAN_MOTION_DOT":0.00013845,"MEAN_MOTION_DDOT":0},{"OBJECT_NAME":"FLOCK 4Q-28","OBJECT_ID":"2023-174AA","EPOCH":"2026-07-16T16:38:36.470688","CLASSIFICATION_TYPE":"U","MEAN_MOTION":15.56823218,"ECCENTRICITY":0.0004691,"INCLINATION":97.3886,"RA_OF_ASC_NODE":289.8979,"ARG_OF_PERICENTER":59.1719,"MEAN_ANOMALY":300.9997,"EPHEMERIS_TYPE":0,"NORAD_CAT_ID":58280,"ELEMENT_SET_NO":999,"REV_AT_EPOCH":15033,"BSTAR":0.00026633,"MEAN_MOTION_DOT":0.00019014,"MEAN_MOTION_DDOT":0},{"OBJECT_NAME":"FLOCK 4Q-27","OBJECT_ID":"2023-174AC","EPOCH":"2026-07-16T19:46:00.742080","CLASSIFICATION_TYPE":"U","MEAN_MOTION":15.57025676,"ECCENTRICITY":0.0003862,"INCLINATION":97.3813,"RA_OF_ASC_NODE":289.4386,"ARG_OF_PERICENTER":64.5134,"MEAN_ANOMALY":295.652,"EPHEMERIS_TYPE":0,"NORAD_CAT_ID":58282,"ELEMENT_SET_NO":999,"REV_AT_EPOCH":15036,"BSTAR":0.00027416,"MEAN_MOTION_DOT":0.00019723,"MEAN_MOTION_DDOT":0},{"OBJECT_NAME":"FLOCK 4Q-7","OBJECT_ID":"2023-174BQ","EPOCH":"2026-07-16T04:46:21.722592","CLASSIFICATION_TYPE":"U","MEAN_MOTION":15.57413924,"ECCENTRICITY":0.00044738,"INCLINATION":97.3915,"RA_OF_ASC_NODE":289.7135,"ARG_OF_PERICENTER":38.7691,"MEAN_ANOMALY":321.3885,"EPHEMERIS_TYPE":0,"NORAD_CAT_ID":58318,"ELEMENT_SET_NO":999,"REV_AT_EPOCH":15026,"BSTAR":0.00028213415,"MEAN_MOTION_DOT":0.000206,"MEAN_MOTION_DDOT":0},{"OBJECT_NAME":"FLOCK 4Q-2","OBJECT_ID":"2023-174BS","EPOCH":"2026-07-16T19:47:21.696288","CLASSIFICATION_TYPE":"U","MEAN_MOTION":15.5088738,"ECCENTRICITY":0.000463,"INCLINATION":97.3843,"RA_OF_ASC_NODE":286.9951,"ARG_OF_PERICENTER":46.5011,"MEAN_ANOMALY":313.6625,"EPHEMERIS_TYPE":0,"NORAD_CAT_ID":58320,"ELEMENT_SET_NO":999,"REV_AT_EPOCH":15019,"BSTAR":0.00024713,"MEAN_MOTION_DOT":0.00014205,"MEAN_MOTION_DDOT":0},{"OBJECT_NAME":"FLOCK 4Q-9","OBJECT_ID":"2023-174BU","EPOCH":"2026-07-16T15:31:58.963872","CLASSIFICATION_TYPE":"U","MEAN_MOTION":15.51403062,"ECCENTRICITY":0.0005437,"INCLINATION":97.3857,"RA_OF_ASC_NODE":286.9259,"ARG_OF_PERICENTER":45.9732,"MEAN_ANOMALY":314.1968,"EPHEMERIS_TYPE":0,"NORAD_CAT_ID":58322,"ELEMENT_SET_NO":999,"REV_AT_EPOCH":15015,"BSTAR":0.00029967,"MEAN_MOTION_DOT":0.00017575,"MEAN_MOTION_DDOT":0},{"OBJECT_NAME":"FLOCK 4Q-4","OBJECT_ID":"2023-174BZ","EPOCH":"2026-07-16T05:03:44.567136","CLASSIFICATION_TYPE":"U","MEAN_MOTION":15.49889476,"ECCENTRICITY":0.00056936,"INCLINATION":97.3832,"RA_OF_ASC_NODE":285.5904,"ARG_OF_PERICENTER":71.7862,"MEAN_ANOMALY":288.4009,"EPHEMERIS_TYPE":0,"NORAD_CAT_ID":58327,"ELEMENT_SET_NO":999,"REV_AT_EPOCH":15005,"BSTAR":0.00024526787,"MEAN_MOTION_DOT":0.00013609,"MEAN_MOTION_DDOT":0},{"OBJECT_NAME":"FLOCK 4Q-13","OBJECT_ID":"2023-174CA","EPOCH":"2026-07-16T04:39:20.243520","CLASSIFICATION_TYPE":"U","MEAN_MOTION":15.52911479,"ECCENTRICITY":0.0005838,"INCLINATION":97.4008,"RA_OF_ASC_NODE":288.8848,"ARG_OF_PERICENTER":52.8672,"MEAN_ANOMALY":307.3114,"EPHEMERIS_TYPE":0,"NORAD_CAT_ID":58328,"ELEMENT_SET_NO":999,"REV_AT_EPOCH":15017,"BSTAR":0.00021789018,"MEAN_MOTION_DOT":0.00013456,"MEAN_MOTION_DDOT":0},{"OBJECT_NAME":"FLOCK 4BE-18","OBJECT_ID":"2024-149N","EPOCH":"2026-07-16T19:05:30.731712","CLASSIFICATION_TYPE":"U","MEAN_MOTION":15.42743671,"ECCENTRICITY":0.0005121,"INCLINATION":97.3728,"RA_OF_ASC_NODE":281.8533,"ARG_OF_PERICENTER":139.2375,"MEAN_ANOMALY":220.9256,"EPHEMERIS_TYPE":0,"NORAD_CAT_ID":60480,"ELEMENT_SET_NO":999,"REV_AT_EPOCH":10687,"BSTAR":0.00022014,"MEAN_MOTION_DOT":0.00009536,"MEAN_MOTION_DDOT":0},{"OBJECT_NAME":"FLOCK 4BE-7","OBJECT_ID":"2024-149P","EPOCH":"2026-07-16T04:20:22.924032","CLASSIFICATION_TYPE":"U","MEAN_MOTION":15.41483947,"ECCENTRICITY":0.0004354,"INCLINATION":97.3756,"RA_OF_ASC_NODE":280.5199,"ARG_OF_PERICENTER":146.0545,"MEAN_ANOMALY":214.0981,"EPHEMERIS_TYPE":0,"NORAD_CAT_ID":60481,"ELEMENT_SET_NO":999,"REV_AT_EPOCH":10671,"BSTAR":0.00032321,"MEAN_MOTION_DOT":0.00013467,"MEAN_MOTION_DDOT":0},{"OBJECT_NAME":"FLOCK 4BE-36","OBJECT_ID":"2024-149U","EPOCH":"2026-07-16T16:28:15.664224","CLASSIFICATION_TYPE":"U","MEAN_MOTION":15.43572995,"ECCENTRICITY":0.0004874,"INCLINATION":97.3742,"RA_OF_ASC_NODE":282.4853,"ARG_OF_PERICENTER":148.5516,"MEAN_ANOMALY":211.6024,"EPHEMERIS_TYPE":0,"NORAD_CAT_ID":60486,"ELEMENT_SET_NO":999,"REV_AT_EPOCH":10690,"BSTAR":0.00023642,"MEAN_MOTION_DOT":0.00010539,"MEAN_MOTION_DDOT":0},{"OBJECT_NAME":"FLOCK 4BE-25","OBJECT_ID":"2024-149V","EPOCH":"2026-07-16T19:08:27.655584","CLASSIFICATION_TYPE":"U","MEAN_MOTION":15.3957255,"ECCENTRICITY":0.0003736,"INCLINATION":97.3796,"RA_OF_ASC_NODE":281.1633,"ARG_OF_PERICENTER":138.9384,"MEAN_ANOMALY":221.2143,"EPHEMERIS_TYPE":0,"NORAD_CAT_ID":60487,"ELEMENT_SET_NO":999,"REV_AT_EPOCH":10679,"BSTAR":0.00021859,"MEAN_MOTION_DOT":0.00008517,"MEAN_MOTION_DDOT":0},{"OBJECT_NAME":"FLOCK 4BE-31","OBJECT_ID":"2024-149W","EPOCH":"2026-07-16T19:38:00.242304","CLASSIFICATION_TYPE":"U","MEAN_MOTION":15.45200361,"ECCENTRICITY":0.000385,"INCLINATION":97.3795,"RA_OF_ASC_NODE":283.567,"ARG_OF_PERICENTER":147.475,"MEAN_ANOMALY":212.6736,"EPHEMERIS_TYPE":0,"NORAD_CAT_ID":60488,"ELEMENT_SET_NO":999,"REV_AT_EPOCH":10695,"BSTAR":0.00026961,"MEAN_MOTION_DOT":0.00012715,"MEAN_MOTION_DDOT":0},{"OBJECT_NAME":"FLOCK 4BE-20","OBJECT_ID":"2024-149X","EPOCH":"2026-07-16T04:33:52.664832","CLASSIFICATION_TYPE":"U","MEAN_MOTION":15.38831395,"ECCENTRICITY":0.00051132,"INCLINATION":97.3691,"RA_OF_ASC_NODE":279.3574,"ARG_OF_PERICENTER":151.0739,"MEAN_ANOMALY":209.079,"EPHEMERIS_TYPE":0,"NORAD_CAT_ID":60489,"ELEMENT_SET_NO":999,"REV_AT_EPOCH":10667,"BSTAR":0.00022826745,"MEAN_MOTION_DOT":0.00008686,"MEAN_MOTION_DDOT":0},{"OBJECT_NAME":"FLOCK 4BE-23","OBJECT_ID":"2024-149Y","EPOCH":"2026-07-16T04:31:14.949408","CLASSIFICATION_TYPE":"U","MEAN_MOTION":15.38379949,"ECCENTRICITY":0.00047491,"INCLINATION":97.3777,"RA_OF_ASC_NODE":279.7464,"ARG_OF_PERICENTER":153.5549,"MEAN_ANOMALY":206.5939,"EPHEMERIS_TYPE":0,"NORAD_CAT_ID":60490,"ELEMENT_SET_NO":999,"REV_AT_EPOCH":10665,"BSTAR":0.00020426683,"MEAN_MOTION_DOT":0.00007649,"MEAN_MOTION_DDOT":0}]}
